#aV2010 10 10  0  0   .00000000      96 DD+AD WGS84 FIT  NGA
## 1605       .00000000   900.00000000 55479  .0000000000000
+   32     1  2  3  4  5  6  7  8  9 10 11 12 13 14 15 16 17
+         18 19 20 21 22 23 24 25 26 27 28 29 30 31 32  0  0
+          0  0  0  0  0  0  0  0  0  0  0  0  0  0  0  0  0
+          0  0  0  0  0  0  0  0  0  0  0  0  0  0  0  0  0
+          0  0  0  0  0  0  0  0  0  0  0  0  0  0  0  0  0
++         0  0  0  0  0  0  0  0  0  0  0  0  0  0  0  0  0
++         0  0  0  0  0  0  0  0  0  0  0  0  0  0  0  0  0
++         0  0  0  0  0  0  0  0  0  0  0  0  0  0  0  0  0
++         0  0  0  0  0  0  0  0  0  0  0  0  0  0  0  0  0
++         0  0  0  0  0  0  0  0  0  0  0  0  0  0  0  0  0
%c cc cc ccc ccc cccc cccc cccc cccc ccccc ccccc ccccc ccccc
%c cc cc ccc ccc cccc cccc cccc cccc ccccc ccccc ccccc ccccc
%f  0.0000000  0.000000000  0.00000000000  0.000000000000000
%f  0.0000000  0.000000000  0.00000000000  0.000000000000000
%i    0    0    0    0      0      0      0      0         0
%i    0    0    0    0      0      0      0      0         0
/*      NGA, ST. LOUIS,MO.                                  
/*   EPHEMERIS COMPUTED FROM  3 DAYS OF DATA                
/* CCCCCCCCCCCCCCCCCCCCCCCCCCCCCCCCCCCCCCCCCCCCCCCCCCCCCCCCC
/* CCCCCCCCCCCCCCCCCCCCCCCCCCCCCCCCCCCCCCCCCCCCCCCCCCCCCCCCC
*  2010 10 10  2 15   .00000000                                                 
P  1 -23794.754593  -2902.803421  11452.963060   -170.827305                    
V  1 -12186.636075  -8461.922968 -27061.307880      -.037625                    
P  2  22872.669423 -12465.671507  -3668.877059    294.398868                    
V  2  -1733.930602   5840.518816 -31122.146646       .026519                    
P  3 -11576.115479  14254.285143  18680.783744    619.462888                    
V  3  -6571.136249 -23980.767943  14265.997918       .051535                    
P  4  22816.236640  -3031.220408 -13748.131162    190.077058                    
V  4 -12907.479111  11410.047959 -23911.093641       .093986                    
P  5  16220.271790  -7469.824592  19678.250497    -49.036444                    
V  5  21883.913797  12138.918016 -13333.059173      -.059379                    
P  6 -14318.686605   8931.689834  20638.378723    461.697418                    
V  6  -3995.152644 -25687.499142   8587.458699      -.143186                    
P  7   7807.255102  12745.109555  21949.538806     -1.485725                    
V  7 -23352.241209  15163.013321   -691.476554       .002048                    
P  8  18156.576475   4109.349385  19164.753977      6.858975                    
V  8 -20705.190843  12263.834218  16455.345685       .001257                    
P  9  11247.788320 -19636.406841 -14435.282257     35.458309                    
V  9  15077.304144  -8745.989795  24593.543841       .022208                    
P 10  24320.192649   4899.369402   9771.909099    -54.758272                    
V 10   9957.709566   8103.232974 -27940.956183      -.011258                    
P 11  -3374.148181  21683.767374 -15009.857441    -95.437848                    
V 11 -15508.763565  11493.249119  20861.692314      -.027422                    
P 12    -82.892760 -16180.081671 -21056.799693    -64.979829                    
V 12  24095.558118  11636.265447  -8874.299672       .036207                    
P 13   5539.609439  24326.014275   8907.068157    295.307338                    
V 13  -1881.361936  11457.596452 -29724.299136      -.010151                    
P 14 -13934.821925  -8436.975121 -20852.889431     96.524803                    
V 14    334.279325 -26743.592292  10381.145510       .035647                    
P 15   5641.655731 -23658.336882  10535.796239   -197.993910                    
V 15   3852.505143  13146.271290  27636.188191       .049801                    
P 16 -20635.004792   1934.262651  16797.197757   -115.935405                    
V 16 -17983.310897 -11187.108309 -20571.008613      -.033453                    
P 17  14008.598242  11447.004814 -19412.310348    173.692743                    
V 17   -276.652830  24839.746189  14152.838293       .013142                    
P 18 -17990.589262 -17433.026605   9666.886393     97.915286                    
V 18  11773.979950   2913.550382  27649.724551       .022268                    
P 19  -7755.442823  22984.515485  10436.065744    -72.927237                    
V 19  -2555.360235 -13402.767150  27960.816585      -.032682                    
P 20   1351.399617  17135.985298 -20397.957769     50.375758                    
V 20 -23815.299651  -9663.777953  -9698.263168      -.003111                    
P 21 -11208.912415 -11695.339576  21453.696207    -94.045951                    
V 21  22168.006490 -14465.479193   3134.104306      -.026994                    
P 22 -24002.720690 -11360.562132  -1569.063529    161.276789                    
V 22   -261.509269  -4214.438830  30986.652570      -.006584                    
P 23    274.166493  26325.694980  -1597.269808    349.701241                    
V 23  -3025.100689  -1883.873717 -32018.341038      -.019303                    
P 24 -20707.034608  15829.760225  -4323.395645    328.784626                    
V 24  -6533.796345    -15.904062  31017.239942       .031809                    
P 25 -12260.704795 -17815.924988 -15432.129896    -44.914990                    
V 25  18507.142097   6641.360010 -22414.466906      -.019088                    
P 26  11587.143062 -15477.449985  17445.021500    -26.738204                    
V 26   1373.641513  23401.936858  19640.284631      -.074280                    
P 27  16572.656906 -18773.775368  -7834.343558    196.706059                    
V 27  10200.649280  -4568.531786  30170.204324       .035800                    
P 28  22840.639348  13800.220306   1765.579460      -.309941                    
V 28  -2491.253500   1164.401740  31701.993293       .016213                    
P 29  -5953.337432 -24816.951677   7509.997991    155.154684                    
V 29   2337.846003  -9490.655885 -29783.811160       .026291                    
P 30 -15286.581212 -17277.559822 -13634.338814    285.810315                    
V 30  16037.072890   4765.529902 -24788.119312       .034750                    
P 31 -23217.372751   6077.770038 -11366.430454     -2.214240                    
V 31  11239.608788  -9594.617079 -27413.604087       .034046                    
P 32  -5907.591414  14069.274061 -21431.308755   -104.833549                    
V 32 -23946.559427 -14480.924074  -2498.984500      -.087804                    
EOF
